address,description,lat,lng,photos,url,title
Lake Kiowa Septic,"Drive through circle benefiting missions

Clark‚Äôs Christmas Drive through",32.749904,-97.330339,,https://www.google.com/maps/place/Lake+Kiowa+Septic/data=!4m2!3m1!1s0x864c5466d9c64d05:0xfd65d0f9b2f2b992,Lake Kiowa Septic
9719 Bernard Rd,"We have a great drive by display at our house. You won‚Äôt be disappointed!
Lazy H Ranch

The Laazy H Ranch Christmas light display is up and running! With almost a quarter of a million lights on 3 acres, this free drive by display has something for everyone. We will be lit nightly from 6pm to 11pm through New Year‚Äôs Day. 

9719 Bernard Rd
Sanger, Texas",32.733078500132,-96.87420050468,,https://www.google.com/maps/place/9719+Bernard+Rd/data=!4m2!3m1!1s0x864dba1321f4c105:0x68a8e33335fd26,9719 Bernard Rd
6125 Deloache Ave,"The Viral DALLAS HOUSE IS BACKüéâüéâüéâTheme This Year is The Grinchüíöüíö
 üìç6215 Deloache Ave, DallasTx   #dallas #fyp #viralhouse #foryoupage„Ç∑",32.870741308014,-96.801331498647,,https://www.google.com/maps/place/6125+Deloache+Ave/data=!4m2!3m1!1s0x864e9e483bf41fc7:0x84587673a9478989,6125 Deloache Ave
7112 Four Sixes Ranch Rd,https://www.facebook.com/share/p/15WSkzHSmjr/?mibextid=wwXIfr,32.87169428676,-97.228650151393,,https://www.google.com/maps/place/7112+Four+Sixes+Ranch+Rd/data=!4m2!3m1!1s0x864dd7d66b09f9cb:0xff6cdd372fa09885,7112 Four Sixes Ranch Rd
1306 Windsor Way,"https://www.facebook.com/share/14QJiow2qiJ/?mibextid=wwXIfr

The Windsor Way Synchronized Christmas light display Windsor Way Christmas is back for the 16th year! The show runs nightly Thanksgiving through Dec 31st from 6-10 p.m. (weather permitting). Located at 1306 Windsor Way, Rowlett, TX and synced with 29 houses in the surrounding area (Tolar Bay 2 neighborhood). The show is just over an hour long. Come drive through the neighborhood and check it out (and yes, it‚Äôs free)! üéÑ",32.875378887577,-96.5646629392,,https://www.google.com/maps/place/1306+Windsor+Way/data=!4m2!3m1!1s0x864ea86f0681361d:0xcdb12a0b879ab369,1306 Windsor Way
6754 Aster Dr,https://www.facebook.com/share/v/1BXdPsDHcU/?mibextid=wwXIfr,32.849354188819,-97.066885874172,,https://www.google.com/maps/place/6754+Aster+Dr/data=!4m2!3m1!1s0x864ef543b9a02c63:0x28c68d9710804e26,6754 Aster Dr
8132 Lost Maple Dr,"https://www.facebook.com/share/p/1Cp26Qz6wb/?mibextid=wwXIfr

‚è∞ Showtime: 5:45 PM ‚Äì 10 PM, every night (Monday‚ÄìSunday)
üéß Length: 42-minute playlist that loops
üìÖ Runs nightly through January 1, 2026",32.899900815869,-97.20621028785,,https://www.google.com/maps/place/8132+Lost+Maple+Dr/data=!4m2!3m1!1s0x864dd64406c0f157:0x4d333c84725cbc24,8132 Lost Maple Dr
Lights Over Frisco,"Lights over Frisco

https://www.facebook.com/share/1Df3DEFfHW/?mibextid=wwXIfr",32.749904,-97.330339,,https://www.google.com/maps/place/Lights+Over+Frisco/data=!4m2!3m1!1s0x864c1700139854d1:0xbcfc0b4f89f710ca,Lights Over Frisco
171 FM 1183,"Mach Family Christmas

https://www.facebook.com/share/1BoETh36Xe/?mibextid=wwXIfr",32.73226099216,-97.504459483318,,https://www.google.com/maps/place/171+FM+1183/data=!4m2!3m1!1s0x864ed75497673c79:0xb3c5742918425477,171 FM 1183
8429 Golf Club Cir,Cole Family Lights,32.87911227107,-97.432695430439,,https://www.google.com/maps/place/8429+Golf+Club+Cir/data=!4m2!3m1!1s0x864ddfe0cac9e75d:0xac100672cdbbfa6a,8429 Golf Club Cir
Creekside Dr,,32.82610199313,-97.076623005363,,https://www.google.com/maps/place/Creekside+Dr/data=!4m2!3m1!1s0x864ddf56f6395da9:0x4e91ea0afb0bd789,Creekside Dr
307 Country Club Dr,"https://www.facebook.com/share/16NacakgW2/?mibextid=wwXIfr

Glazewolds family Christmas",32.967969666683,-96.554247597817,,https://www.google.com/maps/place/307+Country+Club+Dr/data=!4m2!3m1!1s0x864e41c030e475cb:0xf04824da727df619,307 Country Club Dr
5500 Montclair Dr,"https://www.facebook.com/share/p/1AEruZBwDv/
The Big Red Tree in Colleyville",32.748206494259,-97.25141602906,,https://www.google.com/maps/place/5500+Montclair+Dr/data=!4m2!3m1!1s0x864dd5762cd51e29:0x75a5d29f3a43f9bb,5500 Montclair Dr
Tesla,,32.77288520605,-96.831681666352,,https://www.google.com/maps/place/Tesla/data=!4m2!3m1!1s0x864c3cafbe9d559f:0x73c8e06edbe02807,Tesla
Bartonville Tree,Bartonville Christmas tree,32.763667501399,-97.223683496576,,https://www.google.com/maps/place/Bartonville+Tree/data=!4m2!3m1!1s0x864dcd0014e0d1c9:0xb8df16e680d4ec8c,Bartonville Tree
7321 Riverchase Trail,,32.67639998704,-97.4513940315,,https://www.google.com/maps/place/7321+Riverchase+Trail/data=!4m2!3m1!1s0x864dcb6352314fdd:0xec633bf0faa5066c,7321 Riverchase Trail
Aster Dr,https://www.facebook.com/share/v/17krhbgW84/?,32.849354188819,-97.066885874172,,https://www.google.com/maps/place/Aster+Dr/data=!4m2!3m1!1s0x864ef542ecc4ea1f:0x647d687d8d69e126,Aster Dr
305 Creekside Trail,DRC Christmas Light contest,33.1318013,-97.1885777,,"https://www.google.com/maps/search/33.1318013,-97.1885777",305 Creekside Trail
8201 Swan Park Dr,DRC Christmas Light contest,33.1427482,-97.1136689,,"https://www.google.com/maps/search/33.1427482,-97.1136689",8201 Swan Park Dr
8305 Early Dawn Trail,DRC Christmas Light contest,33.1419262,-97.1156216,,"https://www.google.com/maps/search/33.1419262,-97.1156216",8305 Early Dawn Trail
6716 Saddle Ct,DRC Christmas Light contest,33.1475946,-97.1048713,,"https://www.google.com/maps/search/33.1475946,-97.1048713",6716 Saddle Ct
7505 Sweetgate Ln,DRC Christmas Light contest,33.1793703,-97.0561838,,"https://www.google.com/maps/search/33.1793703,-97.0561838",7505 Sweetgate Ln
3499 Camino Real Trail,DRC Christmas Light contest,33.1751318,-97.0762682,,"https://www.google.com/maps/search/33.1751318,-97.0762682",3499 Camino Real Trail
301 Saddlebrook Dr,DRC Christmas Light contest,33.2564713,-97.2152925,,"https://www.google.com/maps/search/33.2564713,-97.2152925",301 Saddlebrook Dr
338 Chisholm Trail,DRC Christmas Light contest,33.2531068,-97.2141552,,"https://www.google.com/maps/search/33.2531068,-97.2141552",338 Chisholm Trail
1622 Appaloosa Dr,DRC Christmas Light contest,33.2570185,-97.2120953,,"https://www.google.com/maps/search/33.2570185,-97.2120953",1622 Appaloosa Dr
1428 N Locust St,DRC Christmas Light contest,33.2270952,-97.1319374,,"https://www.google.com/maps/search/33.2270952,-97.1319374",1428 N Locust St
2021 Robinwood Ln,DRC Christmas Light contest,33.2341692,-97.117703,,"https://www.google.com/maps/search/33.2341692,-97.117703",2021 Robinwood Ln
1500 Lost Lake Dr,,32.920125258584,-97.22025500481,,https://www.google.com/maps/place/1500+Lost+Lake+Dr/data=!4m2!3m1!1s0x864dd6fe6f3b773b:0x348bb90f8070f1e2,1500 Lost Lake Dr
721 Meandering Woods Dr,,32.918829458262,-97.210738024307,,https://www.google.com/maps/place/721+Meandering+Woods+Dr/data=!4m2!3m1!1s0x864dd6f77875c4e3:0x9af1db6d555572e,721 Meandering Woods Dr
733 Bandit Trail,,32.911950556055,-97.181455091192,,https://www.google.com/maps/place/733+Bandit+Trail/data=!4m2!3m1!1s0x864dd678d4e5271d:0xda15bd559c94e312,733 Bandit Trail
806 Magnolia Ct,,32.785726949131,-96.805261692305,,https://www.google.com/maps/place/806+Magnolia+Ct/data=!4m2!3m1!1s0x864dd7afbf869e67:0x38af8e9e3cfd7757,806 Magnolia Ct
915 Rolling Ridge Dr,,32.887662503816,-97.091781006703,,https://www.google.com/maps/place/915+Rolling+Ridge+Dr/data=!4m2!3m1!1s0x864dd7b145071bb3:0xc483f81c5f4043c,915 Rolling Ridge Dr
1537 Sarah Brooks Dr,,32.904831805688,-97.21663821359,,https://www.google.com/maps/place/1537+Sarah+Brooks+Dr/data=!4m2!3m1!1s0x864dd651ff335c07:0xcee76b20634deb96,1537 Sarah Brooks Dr
1545 Sarah Brooks Dr,,32.904290418562,-97.216649780616,,https://www.google.com/maps/place/1545+Sarah+Brooks+Dr/data=!4m2!3m1!1s0x864dd64e00fbcb5d:0xeede29059e17fdba,1545 Sarah Brooks Dr
1505 Chase Oaks Dr,,32.909695405005,-97.243170960454,,https://www.google.com/maps/place/1505+Chase+Oaks+Dr/data=!4m2!3m1!1s0x864dd7a1e66801f9:0xf28b75c4d829ac17,1505 Chase Oaks Dr
633 Cherry Tree Dr,,32.910007504233,-97.238922597322,,https://www.google.com/maps/place/633+Cherry+Tree+Dr/data=!4m2!3m1!1s0x864dd7a14825a4b3:0x4a393edd4d7a8d43,633 Cherry Tree Dr
809 Clearwater Ln,,32.921055566017,-97.236994419823,,https://www.google.com/maps/place/809+Clearwater+Ln/data=!4m2!3m1!1s0x864dd70eb89e6f35:0xc4c0ea07141ef980,809 Clearwater Ln
826 Forest Lakes Dr,,32.919017212893,-97.234072488376,,https://www.google.com/maps/place/826+Forest+Lakes+Dr/data=!4m2!3m1!1s0x864dd708be35d451:0xd92770bda4f70029,826 Forest Lakes Dr
794 Maplewood Dr,,32.701323689043,-96.920513223451,,https://www.google.com/maps/place/794+Maplewood+Dr/data=!4m2!3m1!1s0x864dd7a70d4ec133:0x8bd1beb34e5dd27,794 Maplewood Dr
810 Clearwater Ln,,32.920602985155,-97.236615557799,,https://www.google.com/maps/place/810+Clearwater+Ln/data=!4m2!3m1!1s0x864dd70ecec64a05:0xa9cfcd56916da557,810 Clearwater Ln
809 Tahoe Ln,,32.920457265768,-97.235454496572,,https://www.google.com/maps/place/809+Tahoe+Ln/data=!4m2!3m1!1s0x864dd70f2a4d3875:0x91e0091c420255a1,809 Tahoe Ln
827 Clearwater Ln,,32.921284936797,-97.233540153705,,https://www.google.com/maps/place/827+Clearwater+Ln/data=!4m2!3m1!1s0x864dd70f5b3bd205:0x40e1c2b71e016f6e,827 Clearwater Ln
714 Santa Cruz Dr,,32.943052026882,-97.242663520036,,https://www.google.com/maps/place/714+Santa+Cruz+Dr/data=!4m2!3m1!1s0x864dd738b99f07f9:0x509adf7509560399,714 Santa Cruz Dr
1409 San Bernard Ct,Crump House,32.749904,-97.330339,,https://www.google.com/maps/place/1409+San+Bernard+Ct/data=!4m2!3m1!1s0x864c2c59dbc85747:0x1a606bf1ee1510c,1409 San Bernard Ct
1511 Nightingale Ln,Steelman Christmas,32.565547955486,-96.847409595199,,https://www.google.com/maps/place/1511+Nightingale+Ln/data=!4m2!3m1!1s0x864c33516c3d53f1:0x7829d6f2c534fee9,1511 Nightingale Ln
3501 Brookshire Run,The Porters,32.856311797097,-97.240061819199,,https://www.google.com/maps/place/3501+Brookshire+Run/data=!4m2!3m1!1s0x864c3349580ce8b3:0x4f52dbff748db108,3501 Brookshire Run
3800 Leon Dr,Arnold Family Display,32.687103006843,-96.664160488483,,https://www.google.com/maps/place/3800+Leon+Dr/data=!4m2!3m1!1s0x864c2f70646b11f5:0xdada98265c6817c7,3800 Leon Dr
970 Garden Park Dr,Waters Creek Village,32.899654435454,-96.61905913503,,https://www.google.com/maps/place/970+Garden+Park+Dr/data=!4m2!3m1!1s0x864c175d65ef022f:0xa29c810152f50416,970 Garden Park Dr
1815 Marchmont Dr,Ensell Family Christmas,32.794182993376,-96.641700424553,,https://www.google.com/maps/place/1815+Marchmont+Dr/data=!4m2!3m1!1s0x864c106e6cdedc7b:0xb579e5f2d0efd1d,1815 Marchmont Dr
4341 Woodglen Dr,"Our house in Grapevine Tx 
4341 Woodglen Dr 76051

https://www.facebook.com/DFWlightshow?mibextid=LQQJ4d

https://www.dfwchristmaslightsinstall.com/

animated light show

https://www.instagram.com/reel/C0foxe4vlOW/?igshid=MzRlODBiNWFlZA==",32.891211506394,-97.084865056483,,https://www.google.com/maps/place/4341+Woodglen+Dr/data=!4m2!3m1!1s0x864c2ab1b4c2eb1b:0xb6a55295927ebbc0,4341 Woodglen Dr
224 Harper Ct,"We have almost a dozen songs and the show runs daily from 6-11 PM!

Happy that I stumbled on this group!

Our show is live in Keller TX and it we‚Äôd love to be added to your lists. 



Here‚Äôs the address:



224 Harper Court, Keller 76248



Be sure to tune in at 95.5 FM



We are rotating about a dozen Christmas songs from 6-11 PM nightly. 



Also, every house in our neighborhood is beautifully lit up and has something special toward our city‚Äôs theme of ‚ÄòSnow Globe‚Äô. 



Thank you!",32.90455633444,-97.251167379902,,https://www.google.com/maps/place/224+Harper+Ct/data=!4m2!3m1!1s0x864dd79a5aa5c25f:0xfa4f7da097b7b7cc,224 Harper Ct
Modern Art Museum of Fort Worth,"Cultural District
Make the marvelous Modern Lights around the Modern Art Museum your starting point, but drive through the museum district, then through some of the old neighborhoods across the bricks of Camp Bowie, and you'll see grand homes dressed and ready to dazzle for the holidays.",32.7490121,-97.3630112,,https://www.google.com/maps/place/Modern+Art+Museum+of+Fort+Worth/data=!4m2!3m1!1s0x864e73c28a3f9ccb:0xaf238be7f9b35b11,Modern Art Museum of Fort Worth
4088-4122 Clayton Rd E,"Ridglea Hills
Local residents who take walks and visit the ducks along Luther Lake in this westside Fort Worth neighborhood eagerly anticipate the arrival of the holiday lights on about 30 surrounding homes. The lights reflect in the water of the 10-acre lake, making for some pretty spectacular photo and video opps on clear nights. The best place to see them is along the bridge at Clayton Road.",32.711561868843,-97.42711224804,,https://www.google.com/maps/place/4088-4122+Clayton+Rd+E/data=!4m2!3m1!1s0x864e72c5516d78f3:0xc58ea5d8d59ca58d,4088-4122 Clayton Rd E
Ryan Place Improvement,"The stately historic homes in this grand Fort Worth neighborhood get illuminated in spectacular fashion, as do the long walks that lead up to them. Even if you missed the beloved annual Candlelight Christmas in Ryan Place home tour in early December, you can still see the neighborhood illuminated through the holidays.",32.711378,-97.339108,,https://www.google.com/maps/place/Ryan+Place+Improvement/data=!4m2!3m1!1s0x864e71921f6d5ec3:0xcef09af02f03ecc0,Ryan Place Improvement
1100 Hemphill St,"You can pick any night to drive around Fairmount and see historic bungalows lit festively for the season. But the best night of all is Festivus, the annual celebration and holiday lights tour. It takes place 6-9 pm Saturday, December 14, beginning at 1100 Hemphill St",32.732335884465,-97.332427248979,,https://www.google.com/maps/place/1100+Hemphill+St/data=!4m2!3m1!1s0x864e7174f958fbed:0x3d3aa6a1fe32c38f,1100 Hemphill St
Morrisdale Estates,"Morrisdale Estates neighborhood in Euless is known for great light displays. The Morrisdale tradition is for everyone in the neighborhood to put up the same red lights on their curbs to create a sea of red as you drive through the neighborhood. Bonus that it's still a bit of an undiscovered gem, so there's not as much traffic as other neighborhoods.",32.73226099216,-97.504459483318,,https://www.google.com/maps/place/Morrisdale+Estates/data=!4m2!3m1!1s0x864e7ee5c0000001:0x1c06cceba7cb2f21,Morrisdale Estates
6217 Windsor Ct,https://www.facebook.com/pages/Diamond-Loch-Christmas-Lights-Display/1618849645045436,32.823652109515,-97.249517821357,,https://www.google.com/maps/place/6217+Windsor+Ct/data=!4m2!3m1!1s0x864e79ccae96bb75:0x981475475f84b717,6217 Windsor Ct
Brookside Dr,https://www.facebook.com/glenbrookchristmas/,32.856311797097,-97.240061819199,,https://www.google.com/maps/place/Brookside+Dr/data=!4m2!3m1!1s0x864e7f9d6c0f9587:0xfb16e13f965ba4e8,Brookside Dr
Interlochen Christmas Lights,"https://lakeinterlochentx.com/map/

https://www.facebook.com/pages/Arlington%20Interlochen%20Lights/1857729784438909/",32.749904,-97.330339,,https://www.google.com/maps/place/Interlochen+Christmas+Lights/data=!4m2!3m1!1s0x864e7c51cb8b86c1:0xd1e350ad1434be0d,Interlochen Christmas Lights
4113 Carnation Dr,lights and inflatables,32.785402216383,-97.286597516987,,https://www.google.com/maps/place/4113+Carnation+Dr/data=!4m2!3m1!1s0x864e63465cb7a657:0x968772318fd68144,4113 Carnation Dr
4941 Trail Creek Dr,,32.924851268961,-97.276791109367,,https://www.google.com/maps/place/4941+Trail+Creek+Dr/data=!4m2!3m1!1s0x864dd9c53805970f:0x82d84b330899f02e,4941 Trail Creek Dr
5901 Pacers Ln,lights display to music,32.842972102968,-97.377069181473,,https://www.google.com/maps/place/5901+Pacers+Ln/data=!4m2!3m1!1s0x864e7594414059fd:0xbc72f38bae17933c,5901 Pacers Ln
Haywire Ranch Road,"If you‚Äôre in West Fort Worth check out The Live Oak Creek neighborhood! Not a single dark street! Bonus points to the home owners who lit up the sidewalk for a quick run thru! üå≤ ‚ùÑÔ∏èüéÖüèΩ

Live Oak Creek neighborhood, Haywire Ranch Rd., Fort Worth (76108) off White Settlement Rd., west Fort Worth (many homes lit up brightly)",32.777715152026,-97.530835991507,,https://www.google.com/maps/place/Haywire+Ranch+Road/data=!4m2!3m1!1s0x864e095066d02969:0xdd6678adfbd8151b,Haywire Ranch Road
312 Shea Ln,Two walk-thru areas with over 75 inflatables and thousands of light,32.871660633419,-97.378091941298,,https://www.google.com/maps/place/312+Shea+Ln/data=!4m2!3m1!1s0x864ddf660e69eee9:0x62919ab3b7f59e5c,312 Shea Ln
5700 Montclair Dr,"big lights display including ""fiery"" red tree)",32.748206494259,-97.25141602906,,https://www.google.com/maps/place/5700+Montclair+Dr/data=!4m2!3m1!1s0x864dd5760dc60075:0x86e65e1d7ce5e830,5700 Montclair Dr
Fallbrook Ct,Spectacular set-up of brightly colored lights around the house and trees),32.770766994343,-97.208928916235,,https://www.google.com/maps/place/Fallbrook+Ct/data=!4m2!3m1!1s0x864dd5c61083b4d9:0xb4bf05630f281b0,Fallbrook Ct
Rushing Meadow Ct,https://www.youtube.com/watch?v=Hc7_M8eJIkY,32.855640993386,-97.278285476974,,https://www.google.com/maps/place/Rushing+Meadow+Ct/data=!4m2!3m1!1s0x864e6336282d757d:0xb35652be4bfbff75,Rushing Meadow Ct
2201 Hodges Pl,https://www.facebook.com/WoodFamilyChristmasLightShow/,32.73226099216,-97.504459483318,,https://www.google.com/maps/place/2201+Hodges+Pl/data=!4m2!3m1!1s0x864e61e3353cdda9:0x91db9eb49a8fc91e,2201 Hodges Pl
3506 Reeves St,"https://www.facebook.com/Curry-Christmas-Chaos-104150318060861

https://fortworth.culturemap.com/news/entertainment/best-christmas-light-neighborhoods-2024/",32.813506234816,-97.260863649315,,https://www.google.com/maps/place/3506+Reeves+St/data=!4m2!3m1!1s0x864e79d747490225:0x48b606a090574747,3506 Reeves St
7809 Grassland Dr,"https://www.facebook.com/LightsOnGrassland

https://fortworth.culturemap.com/news/entertainment/best-christmas-light-neighborhoods-2024/",32.629731373223,-97.402675141302,,https://www.google.com/maps/place/7809+Grassland+Dr/data=!4m2!3m1!1s0x864e6cfb80a4bc71:0xcf9c739915ba0c67,7809 Grassland Dr
1655 Plummer Dr,"https://www.facebook.com/share/p/15cnQwmqMv/?mibextid=WC7FNe

https://www.facebook.com/share/p/1Wea1uhbTY/?mibextid=WC7FNe",32.844386507219,-96.662406030419,,https://www.google.com/maps/place/1655+Plummer+Dr/data=!4m2!3m1!1s0x864c019da6187739:0x8f4d026caad9eb0a,1655 Plummer Dr
8624 Palermo Way,"Holiday Friends‚Ä¶this home in McKinney is absolutely stunning! We love sharing beautiful displays and this one is a can‚Äôt miss! 

https://www.facebook.com/profile.php?id=100085575492060&mibextid=9R9pXO

https://dallas.culturemap.com/news/entertainment/great-christmas-light-fight-mckinney/

8624 Palermo Way, McKinney, TX

https://www.facebook.com/profile.php?id=100085575492060&mibextid=LQQJ4d

https://dallas.culturemap.com/news/entertainment/great-christmas-light-fight-mckinney/",32.73226099216,-97.504459483318,,https://www.google.com/maps/place/8624+Palermo+Way/data=!4m2!3m1!1s0x864c159f7540973d:0x526a3856ce9cb565,8624 Palermo Way
6819 Fallbrook Ct,"Best I‚Äôve seen 
https://www.facebook.com/share/v/1Aaq4ALmxB/?mibextid=K35XfP",32.770869553463,-97.210705823862,,https://www.google.com/maps/place/6819+Fallbrook+Ct/data=!4m2!3m1!1s0x864dd5c8a01e4501:0x55a21253795cafe6,6819 Fallbrook Ct
1100 Pine Ridge Rd,https://www.facebook.com/share/14khhKz5ex/?mibextid=LQQJ4d,33.008158878893,-97.229669809914,,https://www.google.com/maps/place/1100+Pine+Ridge+Rd/data=!4m2!3m1!1s0x864dd056e51433cb:0x1e43ea3d31ecfd32,1100 Pine Ridge Rd
Mach Christmas Display,"TX theme display featuring 40+cities. Mach Christmas Display. Type our name into GPS to find us. Worth the drive to Ennis, TX.

https://www.facebook.com/share/1USh187zFk/?mibextid=LQQJ4d


https://www.facebook.com/share/p/18ewfjRXnN/?mibextid=K35XfP",32.749904,-97.330339,,https://www.google.com/maps/place/Mach+Christmas+Display/data=!4m2!3m1!1s0x864ed148ab769269:0x4233d62890c5a87e,Mach Christmas Display
3809 Hazelhurst Dr,"Our display is open and ready for visitors. We will be closed on Monday the 9th. Follow our page for weekend character events, including Bluey, The Grinch, frozen, and of course, Santa..

Our family will be airing on a brand new Hallmark+ TV show called ‚ÄúReady, Set, ÔøºGlow‚Äù on 12/12. Episode one. 

Burkman Holiday Home
3809 Hazelhurst Dr., Frisco, TX 75036

https://www.facebook.com/share/p/15GExJMhwb/?mibextid=WC7FNe",33.026112161123,-97.332592330562,,https://www.google.com/maps/place/3809+Hazelhurst+Dr/data=!4m2!3m1!1s0x864c39ffbd8887e7:0xd93530f3b48f48d2,3809 Hazelhurst Dr
7312 Bursey Rd S,https://m.facebook.com/groups/130270078565730/permalink/931905665068830/?comment_id=931962485063148&mibextid=S66gvF,32.892041021442,-97.225021206413,,https://www.google.com/maps/place/7312+Bursey+Rd+S/data=!4m2!3m1!1s0x864dd6361496ba25:0xe196470133b35503,7312 Bursey Rd S
14594 Turnbridge Dr,"Got my first year display up and running. Sun-Thurs 6PM-9PM and Fri-Sat 6PM-10PM. 

14594 Turnbridge Dr. Frisco, TX. 75035

https://youtu.be/tTzskP9xtm0?feature=shared",32.998949514236,-96.808440492865,,https://www.google.com/maps/place/14594+Turnbridge+Dr/data=!4m2!3m1!1s0x864c1629e0e896cd:0x22b20169fc56ac38,14594 Turnbridge Dr
6301 Tucker's Pl,"https://m.facebook.com/groups/130270078565730/permalink/729463008646431/?mibextid=fNONUu

Christmas is Alive.. come see 30,000 Ligts dancing to music, tune in to 98.5FM and listen from your car or just grab a chair and take a load off.. running daily 630-10pm 6301 Tuckers Place Rowlett (Please note lights will be off Dec 9-12th)..",32.916432778778,-96.580841353434,,https://www.google.com/maps/place/6301+Tucker's+Pl/data=!4m2!3m1!1s0x864c1d52889f38e9:0x43c6940008f7d8b8,6301 Tucker's Pl
5016 Keating St,https://www.tellfamilylights.com/location,32.910090947016,-97.275534494443,,https://www.google.com/maps/place/5016+Keating+St/data=!4m2!3m1!1s0x864dd82d7ae5f8e1:0xe5b8d31080cb967e,5016 Keating St
3905 Drew Ln,"Want something to do tonight?  Come by! Beat the weekend rain and come see us. üéÑ üéÖ 
3905 Drew ln
Arlington
* we will have snow on the 25th throughout the day 
* snow tonight and tomorrow  (12/28 and 12/29)",32.734366505283,-97.226815520426,,https://www.google.com/maps/place/3905+Drew+Ln/data=!4m2!3m1!1s0x864e63659581fe67:0x743f377b854c86a4,3905 Drew Ln
"Harvest Hill by D.R. Horton, America's Builder",,32.749904,-97.330339,,"https://www.google.com/maps/place/Harvest+Hill+by+D.R.+Horton,+America's+Builder/data=!4m2!3m1!1s0x864db5a8e132166d:0x6b2f3dffce98c34d","Harvest Hill by D.R. Horton, America's Builder"
1600 Wagon Wheel Dr,"The Movie House in Allen!!!!!!!

1600 Wagon Wheel Drive
Allen, TX",32.679089997178,-96.797103850858,,https://www.google.com/maps/place/1600+Wagon+Wheel+Dr/data=!4m2!3m1!1s0x864c10d8d1d9e211:0x8c2d2c324d1688d0,1600 Wagon Wheel Dr
Luverne Dr,"Photo ops and a 33‚Äô Santa on Luverne Dr. in Wylie, Tx. It will be set up nightly from 5:30pm-9pm. (33‚Äô Santa is on all day) Feel free to take pics with all the photo ops we have on display.

******Some items may not be out if it is too windy, raining or if rain is expected.******

Merry Christmas Y‚Äôall!!! üéÖüéÑüß∏üéÅ",32.857068494361,-97.504299975701,,https://www.google.com/maps/place/Luverne+Dr/data=!4m2!3m1!1s0x864c04c4bec2cb87:0x28cc7a4cf102b3d9,Luverne Dr
Holiday Lights at Loy Park,https://texomaconnect.com/event/grayson-county-holiday-lights/2023-12-18/,32.903136984866,-97.273841182363,,https://www.google.com/maps/place/Holiday+Lights+at+Loy+Park/data=!4m2!3m1!1s0x864c8feeddf6e53d:0x1b097dc92dc49710,Holiday Lights at Loy Park
Santa's Country Christmas,"Anyone have any info on the drive through lights in Seagoville?

Brandon Tyler $30 a car.....well worth it!",32.749904,-97.330339,,https://www.google.com/maps/place/Santa's+Country+Christmas/data=!4m2!3m1!1s0x864eb152e68d0785:0x435d39ae2b322e54,Santa's Country Christmas
Western Heritage Furniture & Design Center,The Design Center,32.757684,-97.762784,,https://www.google.com/maps/place/Western+Heritage+Furniture+%26+Design+Center/data=!4m2!3m1!1s0x864e018d318fed37:0x76a06e1644d2c9b6,Western Heritage Furniture & Design Center
Vitruvian Park,Vitruvian Park in Addison is free with tons of trees lit up!,32.93546,-96.84976,,https://www.google.com/maps/place/Vitruvian+Park/data=!4m2!3m1!1s0x864c27274e7e5593:0x6b56409273ab3e2e,Vitruvian Park
Daystar,"https://christmas.daystar.com

definitely Daystar! It‚Äôs free and so pretty! They also have a little coffee shop. ü•∞

https://www.tiktok.com/t/ZT8mtKSjV/",32.77288520605,-96.831681666352,,https://www.google.com/maps/place/Daystar/data=!4m2!3m1!1s0x864e7feee100b329:0xcf8466156c01164,Daystar
11949 Carlin Dr,If you‚Äôre in West Fort Worth check out The Live Oak Creek neighborhood! Not a single dark street! Bonus points to the home owners who lit up the sidewalk for a quick run thru! üå≤ ‚ùÑÔ∏èüéÖüèΩ,32.773218826751,-97.532424739344,,https://www.google.com/maps/place/11949+Carlin+Dr/data=!4m2!3m1!1s0x864e09508438586f:0x1e60950b5a769b40,11949 Carlin Dr
1535 Fort Worth Hwy,Design center in Weatherford,32.765766179077,-96.844486606351,,https://www.google.com/maps/place/1535+Fort+Worth+Hwy/data=!4m2!3m1!1s0x864e018d3c8b157d:0x155b0f82e835b224,1535 Fort Worth Hwy
3739 Verlaine Dr,"Our little train house in Carrollton - 3739 Verlaine Dr 75007

4 tracks going - 8-10pm nightly",32.73226099216,-97.504459483318,,https://www.google.com/maps/place/3739+Verlaine+Dr/data=!4m2!3m1!1s0x864c245219b9c1d9:0x831b4a10bae48c82,3739 Verlaine Dr
1002 Keller Pkwy,"Keller Christmas lists 2023 ¬∑ TRAILTROOPER
https://maps.app.goo.gl/vhMvPyEUm9QW2StY9?g_st=i",32.933757627818,-97.228696084222,,https://www.google.com/maps/place/1002+Keller+Pkwy/data=!4m2!3m1!1s0x864dd7193d015b3b:0xcb4430d508d6cab6,1002 Keller Pkwy
218 Falcon Cir,"https://bit.ly/4abDnkD

üì∏ Look at this post on Facebook https://docs.google.com/forms/d/e/1FAIpQLSclh6na3mg7jZyUintM_IQ6rrnOWKqSSvF8uXm4b4ypnWrRdw/viewform?

This is awesome. I added all the individual houses to a google maps list as well

Keller Christmas lists 2023 ¬∑
https://maps.app.goo.gl/vhMvPyEUm9QW2StY9?g_st=i",32.812431036445,-96.938160331541,,https://www.google.com/maps/place/218+Falcon+Cir/data=!4m2!3m1!1s0x864dd6ef404f89d3:0x2bfe181ec9722907,218 Falcon Cir
1100 Bear Creek Pkwy,,32.852021550433,-97.069117276399,,https://www.google.com/maps/place/1100+Bear+Creek+Pkwy/data=!4m2!3m1!1s0x864dd71c7a152d61:0x2f1b353f90fbe8f,1100 Bear Creek Pkwy
6300 Tucker's Pl,we run a light show to music nightly... 6300 Tuckers place Rowlett,32.916789795084,-96.580558149609,,https://www.google.com/maps/place/6300+Tucker's+Pl/data=!4m2!3m1!1s0x864c1d52eaaf0b89:0xe3c2eae5415b08c1,6300 Tucker's Pl
8944 Manana St,"Be prepared to be dazzled by the Black Family Lights Spectacular.  The  show uses color changing pixel and projection mapping to spread our love for Christmas. We run every night from 6 PM to 10 PM. 

8944 Manana St Fort Worth TX 76244Ôøº",32.903407007877,-97.273496769962,,https://www.google.com/maps/place/8944+Manana+St/data=!4m2!3m1!1s0x864dd82fa85c118b:0xda0c8f1b2dd2b6db,8944 Manana St
Loy Lake Park,Denison Loy Lake park has a free drive threw display,32.749989807024,-97.339096435969,,https://www.google.com/maps/place/Loy+Lake+Park/data=!4m2!3m1!1s0x864c8f5d323357f7:0x8adfe9a508fa533,Loy Lake Park
1915 Everglade Ct,The house next to whaley Methodist church in Gainesville..I think it's called lights on everglade..its all choreographed to music..my grandkids luv itüå≤‚ù§,32.880805604104,-97.193183008206,,https://www.google.com/maps/place/1915+Everglade+Ct/data=!4m2!3m1!1s0x864d004cf11c0cd7:0x713e88d42a1f0575,1915 Everglade Ct
401 Line Dr,,32.73226099216,-97.504459483318,,https://www.google.com/maps/place/401+Line+Dr/data=!4m2!3m1!1s0x864d0044b672d9d1:0x69f1532e989c45b1,401 Line Dr
9408 Liberty Rd,There's a place on Liberty road in Aubrey/ Krugerville that has a show at his house.(I haven't been there this year though.,32.942122145691,-96.532449593653,,https://www.google.com/maps/place/9408+Liberty+Rd/data=!4m2!3m1!1s0x864c49da6d65f857:0x4bcfad06d385c163,9408 Liberty Rd
2800 Frontier Dr,,32.772373742318,-97.128594996002,,https://www.google.com/maps/place/2800+Frontier+Dr/data=!4m2!3m1!1s0x864dcb39dad34d49:0xf401dadf6e3bab12,2800 Frontier Dr
3325 Sombrero Dr,,32.90068150633,-96.872185998071,,https://www.google.com/maps/place/3325+Sombrero+Dr/data=!4m2!3m1!1s0x864dcb39dcfef953:0xe9c3293dea82e1f9,3325 Sombrero Dr
Summit Peak,,32.753098005314,-97.341181015289,,https://www.google.com/maps/place/Summit+Peak/data=!4m2!3m1!1s0x864c2df3d3f66c71:0x7a9e04df86fe8229,Summit Peak
1288 Winnipeg Dr,"Which route has the house with the 10+ minute song/lights with the house next door that says ""ditto‚û°Ô∏è""?",32.600243963581,-97.395990447791,,https://www.google.com/maps/place/1288+Winnipeg+Dr/data=!4m2!3m1!1s0x864c2df4b59a511d:0x86e7933a62bf5e0f,1288 Winnipeg Dr
115 Creekside Dr,,32.82610199313,-97.076623005363,,https://www.google.com/maps/place/115+Creekside+Dr/data=!4m2!3m1!1s0x864db3ccb98592c1:0x4f45bd30f5c439dc,115 Creekside Dr
10273 Terrace Rd,,32.732188307497,-97.506577459389,,https://www.google.com/maps/place/10273+Terrace+Rd/data=!4m2!3m1!1s0x864db31bd93500c7:0xc52b87598a1ebf7b,10273 Terrace Rd
1068 James Ct,"We‚Äôre in Allen, but we have a Lightshow in progress. Should be finished by mid December!",32.753052994494,-97.468177493414,,https://www.google.com/maps/place/1068+James+Ct/data=!4m2!3m1!1s0x864c1717b64bdfd3:0x7eebf9386e8f6961,1068 James Ct
6409 Fitzgerald Dr,‚ñ∂Ô∏è Watch this reel https://www.facebook.com/reel/372306855253354?fs=e&s=TIeQ9V&mibextid=3iQHzw,32.85557391827,-97.404635480921,,https://www.google.com/maps/place/6409+Fitzgerald+Dr/data=!4m2!3m1!1s0x864c1a1fef29e83b:0x26adc981f31a5dc8,6409 Fitzgerald Dr
4916 Saucer Dr,,32.833899447151,-97.274802167562,,https://www.google.com/maps/place/4916+Saucer+Dr/data=!4m2!3m1!1s0x864e778ff5145de1:0x21e8bbf8f9a55f63,4916 Saucer Dr
2 Rushing Meadow Ct,https://m.facebook.com/groups/130270078565730/permalink/337403437852392/?mibextid=fNONUu,32.749904,-97.330339,,https://www.google.com/maps/place/2+Rushing+Meadow+Ct/data=!4m2!3m1!1s0x864e6349d7365ba5:0xba87e8560efac456,2 Rushing Meadow Ct
6300 Diamond Loch Dr,"Diamond Loch

Check out Diamond Loch Christmas Lights Display https://yelp.to/kOEvaOMgJY",32.82455930887,-97.248981466102,,https://www.google.com/maps/place/6300+Diamond+Loch+Dr/data=!4m2!3m1!1s0x864e7834abf0b20d:0x209d3743d9d12533,6300 Diamond Loch Dr
2425 S Polaris St,"The Loy Lake Holiday lights in Denison is FREE and fun for the whole family!! 

üéÑDrive through light experience 
üéÅ Over 90 light displays
üóì More than a 20 year tradition
üéÖ Free admission - Donations accepted
üïò Open daily sunset to 10pm in December 

Loy Lake Holiday Lights 
üìç2425 S Polaris St, Denison, TX 75020

#frugalfriscomom #denisontx",32.825944691305,-97.311962240387,,https://www.google.com/maps/place/2425+S+Polaris+St/data=!4m2!3m1!1s0x864c8f679d29969d:0x95ee0d77135fd7ee,2425 S Polaris St
1729 Sawtooth Oak Trail,https://fortworth.culturemap.com/news/entertainment/ward-drones-christmas-light-fight/,32.90384303448,-97.241721058843,,https://www.google.com/maps/place/1729+Sawtooth+Oak+Trail/data=!4m2!3m1!1s0x864dd7a2c532e2cf:0x2fbcb1c7f2145909,1729 Sawtooth Oak Trail
4521 Wisdom Way,"Texas rangers

Any Texas Rangers Fans in here? 2023 Worlds Series Champs,  this is a tribute i did for them! Was kind of last minute, but pretty happy with the way it came out!


https://youtu.be/uoSwfN8y-ds?si=wPGpu06hQZraPpCa",32.836787557619,-97.277673472314,,https://www.google.com/maps/place/4521+Wisdom+Way/data=!4m2!3m1!1s0x864e7791b41f90a1:0xa66fa815c7d964d4,4521 Wisdom Way
Windsor Ct,,32.722264503931,-97.344307968088,,https://www.google.com/maps/place/Windsor+Ct/data=!4m2!3m1!1s0x864e79ccbb4a6273:0x846d0b2e950caac,Windsor Ct
Bryan Farm Rd,,32.743455002896,-97.325041493087,,https://www.google.com/maps/place/Bryan+Farm+Rd/data=!4m2!3m1!1s0x8653b711dad69e01:0x473b39fc36ff9df,Bryan Farm Rd
3901 Pitchfork Ln,,32.749904,-97.330339,,https://www.google.com/maps/place/3901+Pitchfork+Ln/data=!4m2!3m1!1s0x864dd3c6c5904307:0xb3357dadb8efb1be,3901 Pitchfork Ln
14333 Meadowland Cir,,32.992155814074,-97.456246985801,,https://www.google.com/maps/place/14333+Meadowland+Cir/data=!4m2!3m1!1s0x864de79e3a451b17:0x644eb6fc62df487,14333 Meadowland Cir
35 Wellington Oaks Cir,Denton‚Äôs famous Frenchy house!,32.578358943304,-96.858903949705,,https://www.google.com/maps/place/35+Wellington+Oaks+Cir/data=!4m2!3m1!1s0x864dcb74f3a46a49:0xf4d606b9a26cfa4b,35 Wellington Oaks Cir
Diamond Loch Christmas Lights Display,,32.824621,-97.248216,,https://www.google.com/maps/place/Diamond+Loch+Christmas+Lights+Display/data=!4m2!3m1!1s0x864e7835bc5ae0d3:0xc1e37f4e280ad8bb,Diamond Loch Christmas Lights Display
8705 Honeysuckle Dr,"Show is now live -
8705 Honeysuckle Dr.
Lantana, TX 76226
FM 88.9  5:30-10:30 PM

This year we added interactive bracelets that work with the show.
Pick them up for free at The Touring Chocolatier
https://touringchocolatier.com/
8356 Thompson Rd
Justin, TX 76247
(Just a little west of I-35 on 407, Address says Justin but it really next to Northlake)",32.643512085455,-96.774029835625,,https://www.google.com/maps/place/8705+Honeysuckle+Dr/data=!4m2!3m1!1s0x864dcd107ede2be5:0xc596269e553a58dc,8705 Honeysuckle Dr
3908 Waterfront Ct,,32.874965881144,-97.443967984472,,https://www.google.com/maps/place/3908+Waterfront+Ct/data=!4m2!3m1!1s0x864c333ef4def929:0xbfe297ca85bdf05b,3908 Waterfront Ct
3906 Waterfront Ct,,32.874965881144,-97.443967984472,,https://www.google.com/maps/place/3906+Waterfront+Ct/data=!4m2!3m1!1s0x864c333e59f909bf:0xddb06f69c1fd9673,3906 Waterfront Ct
3808 Lake Cove Court,,32.621206867321,-97.375034534919,,https://www.google.com/maps/place/3808+Lake+Cove+Court/data=!4m2!3m1!1s0x864c333f6cbb4231:0x13ab60e4b03f1e87,3808 Lake Cove Court
2101 Pinnell Ct,,32.73226099216,-97.504459483318,,https://www.google.com/maps/place/2101+Pinnell+Ct/data=!4m2!3m1!1s0x864c3338a1a89355:0xe3ea12941f032a38,2101 Pinnell Ct
2205 High Pointe Dr,,32.787153531907,-96.65868735968,,https://www.google.com/maps/place/2205+High+Pointe+Dr/data=!4m2!3m1!1s0x864c3346bf91f2cf:0xc10833c6e4b41aef,2205 High Pointe Dr
1802 Creek Bend Dr,,32.870396893877,-97.272214925509,,https://www.google.com/maps/place/1802+Creek+Bend+Dr/data=!4m2!3m1!1s0x864c3479c8b32d3d:0x7d22a7c630a841cc,1802 Creek Bend Dr
4312 Winnetka Rd,,32.73226099216,-97.504459483318,,https://www.google.com/maps/place/4312+Winnetka+Rd/data=!4m2!3m1!1s0x864c33858673413d:0xac34720f57af6a92,4312 Winnetka Rd
115 Oakwood Ln,,32.735910603579,-97.140460909943,,https://www.google.com/maps/place/115+Oakwood+Ln/data=!4m2!3m1!1s0x864c33a08599a64f:0x5705a6fe69fecbe2,115 Oakwood Ln
119 Magnolia Ln,,32.759369833098,-97.415652442216,,https://www.google.com/maps/place/119+Magnolia+Ln/data=!4m2!3m1!1s0x864c33a05d394ae7:0xad2b32b1e6840cce,119 Magnolia Ln
3329 Estacado Dr,,32.826587493916,-96.686945518799,,https://www.google.com/maps/place/3329+Estacado+Dr/data=!4m2!3m1!1s0x864dcb3766cbc39d:0xca67d0ea77cca5a3,3329 Estacado Dr
1413 Oxford Ln,,32.786289943748,-96.647505311597,,https://www.google.com/maps/place/1413+Oxford+Ln/data=!4m2!3m1!1s0x864db55ccd42494b:0x167d6de6eb367e49,1413 Oxford Ln
2902 Croydon St,,32.641403005757,-97.281246007085,,https://www.google.com/maps/place/2902+Croydon+St/data=!4m2!3m1!1s0x864db55dc87a47c9:0xf4e6041dbdcd7dfc,2902 Croydon St
2313 Hollyhill Ln,,32.869924421156,-97.079601888584,,https://www.google.com/maps/place/2313+Hollyhill+Ln/data=!4m2!3m1!1s0x864dcb23c06c27df:0x74e35836dc66825f,2313 Hollyhill Ln
1805 Marseilles Ln,,32.749904,-97.330339,,https://www.google.com/maps/place/1805+Marseilles+Ln/data=!4m2!3m1!1s0x864c34a14386285b:0x8189ff5e275b1c9,1805 Marseilles Ln
337 Bluewood Ln,,32.661743289439,-96.826834330336,,https://www.google.com/maps/place/337+Bluewood+Ln/data=!4m2!3m1!1s0x864c338f229d606f:0x2d10d4793eb26faa,337 Bluewood Ln
9813 Havenway Dr,,32.853845505907,-97.242218524796,,https://www.google.com/maps/place/9813+Havenway+Dr/data=!4m2!3m1!1s0x864dceaef29632f7:0x8e32d3e72f7c12b8,9813 Havenway Dr
1207 Primrose Ln,,32.613197692104,-96.89967255621,,https://www.google.com/maps/place/1207+Primrose+Ln/data=!4m2!3m1!1s0x864dca7440208519:0x9412a8627cd05c0,1207 Primrose Ln
1304 Val Verde Ct,,32.631344491444,-97.372859999245,,https://www.google.com/maps/place/1304+Val+Verde+Ct/data=!4m2!3m1!1s0x864dcb616f31d775:0x93ad43354e917251,1304 Val Verde Ct
1300 Angelina Bend Dr,,32.946538102323,-97.29416591455,,https://www.google.com/maps/place/1300+Angelina+Bend+Dr/data=!4m2!3m1!1s0x864dcae0c82ea3a5:0x2cf87276c504ad49,1300 Angelina Bend Dr
2200 W University Dr,,32.738535339374,-97.361477949964,,https://www.google.com/maps/place/2200+W+University+Dr/data=!4m2!3m1!1s0x864dca0ae7c53b29:0xe9fc90ac3c0619f3,2200 W University Dr
3816 Granada Trail,,32.842054058596,-96.795481536191,,https://www.google.com/maps/place/3816+Granada+Trail/data=!4m2!3m1!1s0x864dcb6c21199cc1:0xfa84e47d8eff5f78,3816 Granada Trail
1800 Creek Bend Dr,,32.870396893877,-97.272214925509,,https://www.google.com/maps/place/1800+Creek+Bend+Dr/data=!4m2!3m1!1s0x864c3479c5d04eff:0x635c10f5d500594f,1800 Creek Bend Dr
314 Magnolia St,,32.730477204146,-97.324068980116,,https://www.google.com/maps/place/314+Magnolia+St/data=!4m2!3m1!1s0x864db578a527e01b:0xc8e405fde7587f0c,314 Magnolia St
